STARLINK-36727          
1 67875U 26034AB  26064.91668981  .00059135  00000+0  30173-3 0  9993
2 67875  53.1594 230.0434 0000950  49.6438 293.2984 15.80826847  3252
STARLINK-36743          
1 67876U 26034AC  26064.91668981  .00111836  00000+0  56487-3 0  9997
2 67876  53.1598 230.0343 0000930  44.0239 303.2033 15.80794694  3253
STARLINK-36784          
1 67877U 26034AD  26064.91668981  .00039371  00000+0  20235-3 0  9993
2 67877  53.1597 230.0258 0000924  30.8002 320.6756 15.80845800  3253
STARLINK-36689          
1 67878U 26034AE  26064.91668981  .00034221  00000+0  17650-3 0  9990
2 67878  53.1595 230.0170 0001100  71.2226 284.5302 15.80840246  3253
STARLINK-36818          
1 67879U 26035A   26064.91668981 -.01101159  37472-3 -27341-2 0  9994
2 67879  97.2761 356.9630 0001336 105.2197  71.0951 15.95904682  3152
STARLINK-36821          
1 67880U 26035B   26064.91668981 -.01105212  37786-3 -27227-2 0  9991
2 67880  97.2756 356.9663 0001313 104.0005  79.4694 15.96050997  3152
STARLINK-36808          
1 67881U 26035C   26064.91668981 -.01089203  36748-3 -26945-2 0  9996
2 67881  97.2758 356.9642 0001268  93.4781  85.6192 15.95971329  3155
STARLINK-36817          
1 67882U 26035D   26064.91668981 -.01111921  38273-3 -27175-2 0  9991
2 67882  97.2747 356.9694 0001252  97.2742  94.7761 15.96200000  3158
STARLINK-36856          
1 67883U 26035E   26064.91668981 -.01110662  38163-3 -27252-2 0  9997
2 67883  97.2753 356.9678 0001188 101.0875  86.9386 15.96126798  3154
STARLINK-36842          
1 67884U 26035F   26064.91668981 -.01102348  37691-3 -26843-2 0  9990
2 67884  97.2746 356.9709 0001248  89.3245 106.5118 15.96266252  3150
STARLINK-36826          
1 67885U 26035G   26064.91668981 -.01114383  38493-3 -27010-2 0  9991
2 67885  97.2745 356.9724 0001275 101.7009  97.1948 15.96354022  3153
STARLINK-36390          
1 67886U 26035H   26064.91668981 -.01114388  38525-3 -26897-2 0  9995
2 67886  97.2741 356.9740 0001179  97.4107 106.0211 15.96431779  3193
STARLINK-36368          
1 67887U 26035J   26064.91668981 -.01125148  39250-3 -27042-2 0  9991
2 67887  97.2739 356.9758 0001202  99.3586 108.4041 15.96511827  3155
STARLINK-36801          
1 67888U 26035K   26064.91668981 -.01171397  42333-3 -28013-2 0  9994
2 67888  97.2736 356.9776 0001246 101.9909 109.9464 15.96610431  3156
STARLINK-36372          
1 67889U 26035L   26064.91668981 -.01242306  47286-3 -29439-2 0  9999
2 67889  97.2729 356.9807 0001258 110.5527 109.4383 15.96789121  3157
STARLINK-36363          
1 67890U 26035M   26064.91668981 -.01239480  47048-3 -29496-2 0  9999
2 67890  97.2735 356.9797 0001327 105.8131 110.8064 15.96710921  3153
